{
"type": "FeatureCollection",
"name": "miami",
"crs": { "type": "name", "properties": { "name": "urn:ogc:def:crs:OGC:1.3:CRS84" } },
"features": [
{ "type": "Feature", "properties": { "fid": 369, "OBJECTID": 369, "CessionID": 251, "Cession_Date": -4138776000000, "Nation": "Miami", "Nation_Correct": "Miami", "Cession_Reservation": "Cession", "LinkRoyce": "https://archive.org/stream/annualreportofbu218smit#page/772/mode/2up", "LinkKappler": "https://babel.hathitrust.org/cgi/pt?id=uc1.31210003349790;view=1up;seq=527", "Year": "1838", "StartDate": -5869540800000, "EndDate": -4138776000000, "CreationDate": null, "joinid": "251c", "LinkFedStatute": null, "LinkExecOrder": null, "OldLinkKappler": "http://digital.library.okstate.edu/Kappler/Vol2/treaties/mia0519.htm", "Shape__Area": 806744612.09765625, "Shape__Length": 173301.03035611374 }, "geometry": { "type": "MultiPolygon", "coordinates": [ [ [ [ -85.719050557106797, 40.833866626663301 ], [ -85.719515031922697, 40.646455053513101 ], [ -85.822657648891095, 40.698596320933603 ], [ -85.8182701422961, 40.655089962017897 ], [ -85.8610483311476, 40.6442177364519 ], [ -85.884082739423505, 40.658351969482602 ], [ -85.921376545480399, 40.6616141349988 ], [ -85.959767225940297, 40.687717109679902 ], [ -86.250455984659894, 40.686712669042699 ], [ -86.249342654019301, 40.730155930483903 ], [ -86.235083258034905, 40.732332998532797 ], [ -86.236567592887894, 40.757012682836397 ], [ -86.208753417868493, 40.737029335076599 ], [ -86.127735309217996, 40.747301529785702 ], [ -86.088267320560405, 40.739774530114502 ], [ -86.022678138037506, 40.765598452244603 ], [ -85.991446883068306, 40.753302721992299 ], [ -85.911754769523995, 40.781595045229899 ], [ -85.822478329888995, 40.7895406399386 ], [ -85.792112137267097, 40.811346034858303 ], [ -85.719050557106797, 40.833866626663301 ] ] ] ] } },
{ "type": "Feature", "properties": { "fid": 370, "OBJECTID": 370, "CessionID": 193, "Cession_Date": -4266216000000, "Nation": "Miami", "Nation_Correct": "Miami", "Cession_Reservation": "Cession", "LinkRoyce": "https://archive.org/stream/annualreportofbu218smit#page/752/mode/2up", "LinkKappler": "https://babel.hathitrust.org/cgi/pt?id=uc1.31210003349790;view=1up;seq=433", "Year": "1834", "StartDate": -5869540800000, "EndDate": -4266216000000, "CreationDate": null, "joinid": "193c", "LinkFedStatute": null, "LinkExecOrder": null, "OldLinkKappler": "http://digital.library.okstate.edu/Kappler/Vol2/treaties/mia0425.htm", "Shape__Area": 138940095.14453125, "Shape__Length": 52478.865641465702 }, "geometry": { "type": "MultiPolygon", "coordinates": [ [ [ [ -85.9877921403355, 40.867111101815503 ], [ -85.985472283335099, 40.756062720628201 ], [ -86.022678138037506, 40.765598452244603 ], [ -86.073571858082602, 40.746972726703902 ], [ -86.076010440024305, 40.840554837939699 ], [ -86.066082851493903, 40.852183907878697 ], [ -85.995940138440204, 40.856164702624604 ], [ -85.9877921403355, 40.867111101815503 ] ] ] ] } },
{ "type": "Feature", "properties": { "fid": 385, "OBJECTID": 385, "CessionID": 194, "Cession_Date": -4266216000000, "Nation": "Miami", "Nation_Correct": "Miami", "Cession_Reservation": "Cession", "LinkRoyce": "https://archive.org/stream/annualreportofbu218smit#page/752/mode/2up", "LinkKappler": "https://babel.hathitrust.org/cgi/pt?id=uc1.31210003349790;view=1up;seq=433", "Year": "1834", "StartDate": -5869540800000, "EndDate": -4266216000000, "CreationDate": null, "joinid": "194c", "LinkFedStatute": null, "LinkExecOrder": null, "OldLinkKappler": "http://digital.library.okstate.edu/Kappler/Vol2/treaties/mia0425.htm", "Shape__Area": 50330424.828125, "Shape__Length": 32574.382634672322 }, "geometry": { "type": "MultiPolygon", "coordinates": [ [ [ [ -85.366175876131507, 40.963817115812098 ], [ -85.378172963887593, 40.955284048216299 ], [ -85.392226695977499, 40.9836180176925 ], [ -85.323329133247498, 41.036562977223703 ], [ -85.2955644437221, 41.015379966239401 ], [ -85.366175876131507, 40.963817115812098 ] ] ] ] } },
{ "type": "Feature", "properties": { "fid": 386, "OBJECTID": 386, "CessionID": 258, "Cession_Date": -4073716800000, "Nation": "Miami", "Nation_Correct": "Miami", "Cession_Reservation": "Cession", "LinkRoyce": "https://archive.org/stream/annualreportofbu218smit#page/774/mode/2up", "LinkKappler": "https://babel.hathitrust.org/cgi/pt?id=uc1.31210003349790;view=1up;seq=510", "Year": "1840", "StartDate": -5869540800000, "EndDate": -4073716800000, "CreationDate": null, "joinid": "258c", "LinkFedStatute": null, "LinkExecOrder": null, "OldLinkKappler": "http://digital.library.okstate.edu/Kappler/Vol2/treaties/new0502.htm", "Shape__Area": 3451719861.046875, "Shape__Length": 234969.54034230026 }, "geometry": { "type": "MultiPolygon", "coordinates": [ [ [ [ -85.884082739423505, 40.658351969482602 ], [ -85.8610483311476, 40.6442177364519 ], [ -85.8314326620809, 40.655089962017897 ], [ -85.776588830542593, 40.652915377826901 ], [ -85.729423136892905, 40.624652124219203 ], [ -85.720648122804704, 40.306955602111699 ], [ -86.260311421404893, 40.238837720767798 ], [ -86.250455984659894, 40.686712669042699 ], [ -85.959767225940297, 40.687717109679902 ], [ -85.921376545480399, 40.6616141349988 ], [ -85.884082739423505, 40.658351969482602 ] ] ] ] } },
{ "type": "Feature", "properties": { "fid": 395, "OBJECTID": 395, "CessionID": 199, "Cession_Date": -4266216000000, "Nation": "Miami", "Nation_Correct": "Miami", "Cession_Reservation": "Cession", "LinkRoyce": "https://archive.org/stream/annualreportofbu218smit#page/752/mode/2up", "LinkKappler": "https://babel.hathitrust.org/cgi/pt?id=uc1.31210003349790;view=1up;seq=433", "Year": "1834", "StartDate": -5869540800000, "EndDate": -4266216000000, "CreationDate": null, "joinid": "199c", "LinkFedStatute": null, "LinkExecOrder": null, "OldLinkKappler": "http://digital.library.okstate.edu/Kappler/Vol2/treaties/mia0425.htm", "Shape__Area": 45466700.83203125, "Shape__Length": 28168.910286216516 }, "geometry": { "type": "MultiPolygon", "coordinates": [ [ [ [ -85.492837703269998, 40.905049705769699 ], [ -85.492837703269998, 40.863046022825003 ], [ -85.572414241366602, 40.876578323767603 ], [ -85.571812821080499, 40.904504035764802 ], [ -85.492837703269998, 40.905049705769699 ] ] ] ] } },
{ "type": "Feature", "properties": { "fid": 416, "OBJECTID": 416, "CessionID": 198, "Cession_Date": -4266216000000, "Nation": "Miami", "Nation_Correct": "Miami", "Cession_Reservation": "Cession", "LinkRoyce": "https://archive.org/stream/annualreportofbu218smit#page/752/mode/2up", "LinkKappler": "https://babel.hathitrust.org/cgi/pt?id=uc1.31210003349790;view=1up;seq=433", "Year": "1834", "StartDate": -5869540800000, "EndDate": -4266216000000, "CreationDate": null, "joinid": "198c", "LinkFedStatute": null, "LinkExecOrder": null, "OldLinkKappler": "http://digital.library.okstate.edu/Kappler/Vol2/treaties/mia0425.htm", "Shape__Area": 1153273329.3632812, "Shape__Length": 186364.74651351623 }, "geometry": { "type": "MultiPolygon", "coordinates": [ [ [ [ -86.236567592887894, 40.757012682836397 ], [ -86.235083258034905, 40.732332998532797 ], [ -86.249342654019301, 40.730155930483903 ], [ -86.260311421404893, 40.238837720767798 ], [ -86.397420998454194, 40.222629121417398 ], [ -86.386206966741497, 40.746410342979502 ], [ -86.319749584954295, 40.739502074031002 ], [ -86.236567592887894, 40.757012682836397 ] ] ] ] } },
{ "type": "Feature", "properties": { "fid": 434, "OBJECTID": 434, "CessionID": 197, "Cession_Date": -4266216000000, "Nation": "Miami", "Nation_Correct": "Miami", "Cession_Reservation": "Cession", "LinkRoyce": "https://archive.org/stream/annualreportofbu218smit#page/752/mode/2up", "LinkKappler": "https://babel.hathitrust.org/cgi/pt?id=uc1.31210003349790;view=1up;seq=433", "Year": "1834", "StartDate": -5869540800000, "EndDate": -4266216000000, "CreationDate": null, "joinid": "197c", "LinkFedStatute": null, "LinkExecOrder": null, "OldLinkKappler": "http://digital.library.okstate.edu/Kappler/Vol2/treaties/mia0425.htm", "Shape__Area": 97514163.3671875, "Shape__Length": 79141.438776835392 }, "geometry": { "type": "MultiPolygon", "coordinates": [ [ [ [ -85.264870877162906, 41.010333438723599 ], [ -85.139807964093606, 40.921367308452297 ], [ -85.157632208400301, 40.909769942697103 ], [ -85.278288636167701, 40.991676612510602 ], [ -85.385234107398006, 40.909087807788197 ], [ -85.396202872987004, 40.916591679958003 ], [ -85.313937127476095, 40.995091563228101 ], [ -85.264870877162906, 41.010333438723599 ] ] ] ] } },
{ "type": "Feature", "properties": { "fid": 493, "OBJECTID": 493, "CessionID": 255, "Cession_Date": -4138776000000, "Nation": "Miami", "Nation_Correct": "Miami", "Cession_Reservation": "Cession", "LinkRoyce": "https://archive.org/stream/annualreportofbu218smit#page/774/mode/2up", "LinkKappler": "https://babel.hathitrust.org/cgi/pt?id=uc1.31210003349790;view=1up;seq=527", "Year": "1838", "StartDate": -5869540800000, "EndDate": -4138776000000, "CreationDate": null, "joinid": "255c", "LinkFedStatute": null, "LinkExecOrder": null, "OldLinkKappler": "http://digital.library.okstate.edu/Kappler/Vol2/treaties/mia0519.htm", "Shape__Area": 42796353.17578125, "Shape__Length": 32366.56965511907 }, "geometry": { "type": "MultiPolygon", "coordinates": [ [ [ [ -85.434045116694605, 41.139019546373397 ], [ -85.482170578478701, 41.120130536907098 ], [ -85.492385242522701, 41.144769438890897 ], [ -85.392021031184797, 41.1718827635815 ], [ -85.381326484421095, 41.1406623217066 ], [ -85.434045116694605, 41.139019546373397 ] ] ] ] } },
{ "type": "Feature", "properties": { "fid": 499, "OBJECTID": 499, "CessionID": 99, "Cession_Date": -4772606400000, "Nation": "Miami", "Nation_Correct": "Miami", "Cession_Reservation": "Cession", "LinkRoyce": "https://archive.org/stream/annualreportofbu218smit#page/692/mode/2up", "LinkKappler": "https://babel.hathitrust.org/cgi/pt?id=uc1.31210003349790;view=1up;seq=179", "Year": "1818", "StartDate": -5869540800000, "EndDate": -4772606400000, "CreationDate": null, "joinid": "99c", "LinkFedStatute": null, "LinkExecOrder": null, "OldLinkKappler": "http://digital.library.okstate.edu/Kappler/Vol2/treaties/mia0171.htm", "Shape__Area": 49104745851.59375, "Shape__Length": 1420162.9884387313 }, "geometry": { "type": "MultiPolygon", "coordinates": [ [ [ [ -85.999195260229001, 38.919024287503603 ], [ -87.299085548702607, 39.690912245208601 ], [ -87.293793348785002, 39.784888156145001 ], [ -87.370553266918904, 39.838948566944701 ], [ -87.353813161599405, 39.862244175324399 ], [ -87.378414648549096, 39.874827048661302 ], [ -87.367661814598193, 39.887394689904802 ], [ -87.376905478871805, 39.901405518353499 ], [ -87.4098444545522, 39.913547125272999 ], [ -87.406643083458405, 39.928382700832103 ], [ -87.434045068306403, 39.932677674601599 ], [ -87.420242453965898, 39.949152443446799 ], [ -87.440366962118404, 39.960126246507897 ], [ -87.427596287460503, 39.980626503170001 ], [ -87.434944506484598, 40.026293223157097 ], [ -87.404746515314798, 40.136879720873402 ], [ -87.437714686242003, 40.168299814980699 ], [ -87.415452187713299, 40.194113159916903 ], [ -87.336465570568905, 40.2249580664392 ], [ -87.244683575096303, 40.309368582437699 ], [ -87.107670282174197, 40.3542379947081 ], [ -87.060250464113693, 40.408448381918198 ], [ -87.024128083645195, 40.415163370482801 ], [ -86.939757189266601, 40.394201393507501 ], [ -86.911130126949899, 40.403844799195099 ], [ -86.882135878260797, 40.471071629536702 ], [ -86.840788671520997, 40.4757406526872 ], [ -86.741703372788507, 40.549645765697399 ], [ -86.700416802330395, 40.5579164002542 ], [ -86.688477069310395, 40.5764145560345 ], [ -86.697505137915698, 40.596590701151896 ], [ -86.673645883969499, 40.610038651236401 ], [ -86.664303405014707, 40.645549231588198 ], [ -86.585779420241593, 40.690065010276101 ], [ -86.551873632736601, 40.697498444327401 ], [ -86.501631981789899, 40.739503758614099 ], [ -86.441975986665597, 40.755565764613799 ], [ -86.386207450933398, 40.746410190532004 ], [ -86.397420671467401, 40.222629473970301 ], [ -85.720647902717403, 40.3069555507332 ], [ -85.714030687755795, 40.8311686030559 ], [ -85.668123408054996, 40.837115718452502 ], [ -85.665804631727795, 40.738864805106999 ], [ -85.556116966854503, 40.782424648484103 ], [ -85.557385837193394, 40.877491012471801 ], [ -85.530945049699397, 40.874910753425198 ], [ -85.515872442125996, 40.861410088541398 ], [ -85.490095285048199, 40.863591746028803 ], [ -85.471275579845894, 40.881123921428298 ], [ -85.402677978962302, 40.904226728179502 ], [ -85.396203371552005, 40.916591821832299 ], [ -85.269376973951793, 40.821831405394903 ], [ -85.139808468946796, 40.9213671788062 ], [ -85.264870799907797, 41.010333688176402 ], [ -85.2618356171416, 41.035401295607102 ], [ -85.240583723307594, 41.038134519486903 ], [ -85.2357844739021, 41.064795071991497 ], [ -85.1911078861406, 41.101741573835 ], [ -85.191772639450804, 41.049412631734 ], [ -85.164431290884494, 41.049275446216903 ], [ -85.140010589885705, 41.0161359215207 ], [ -85.095518156757393, 40.984727605068997 ], [ -85.083879359357496, 40.936060182763804 ], [ -85.042813999038103, 40.924461473425403 ], [ -84.959831001773495, 40.861105211258398 ], [ -84.947811543271996, 40.863126377086502 ], [ -84.905825409786303, 40.817625031035703 ], [ -84.794284969639506, 40.750594707157198 ], [ -84.703109336983701, 40.728285021104298 ], [ -84.6246482342805, 40.686311794386903 ], [ -84.524188513163296, 40.681937600721703 ], [ -84.453741505688498, 40.6572180562802 ], [ -84.363898748335501, 40.651453330905198 ], [ -84.349888398585605, 40.633192382879997 ], [ -84.399318197094303, 40.579455011316 ], [ -84.403019256064795, 40.524086856576197 ], [ -84.440861910302502, 40.497639555300999 ], [ -84.474179301296303, 40.408609125402698 ], [ -84.4766474225395, 40.339984674063103 ], [ -84.8041316280476, 40.411865808314197 ], [ -85.086859520312601, 40.267752695355398 ], [ -85.328171709297393, 39.274807965904301 ], [ -85.920188430990706, 38.983740107192503 ], [ -85.937856046841105, 38.947630571361799 ], [ -85.999195260229001, 38.919024287503603 ] ], [ [ -86.683705892257606, 40.047818887121302 ], [ -86.514786686231702, 40.048895937480196 ], [ -86.511496606503599, 40.190223213234901 ], [ -86.682608824716795, 40.190223213234901 ], [ -86.683705892257606, 40.047818887121302 ] ], [ [ -85.065169697777506, 40.399388840064098 ], [ -85.018004776678893, 40.399388840064098 ], [ -85.015810641597497, 40.440563800057497 ], [ -85.065169697777506, 40.438396470557201 ], [ -85.065169697777506, 40.399388840064098 ] ], [ [ -85.391404122146596, 40.7952681379208 ], [ -85.315307834428793, 40.796629961530101 ], [ -85.325383563234297, 40.815626272403001 ], [ -85.362096586002195, 40.816867855322897 ], [ -85.378605375136104, 40.829696184816697 ], [ -85.404566686847105, 40.829535601738797 ], [ -85.391404122146596, 40.7952681379208 ] ] ] ] } },
{ "type": "Feature", "properties": { "fid": 580, "OBJECTID": 580, "CessionID": 195, "Cession_Date": -4266216000000, "Nation": "Miami", "Nation_Correct": "Miami", "Cession_Reservation": "Cession", "LinkRoyce": "https://archive.org/stream/annualreportofbu218smit#page/752/mode/2up", "LinkKappler": "https://babel.hathitrust.org/cgi/pt?id=uc1.31210003349790;view=1up;seq=433", "Year": "1834", "StartDate": -5869540800000, "EndDate": -4266216000000, "CreationDate": null, "joinid": "195c", "LinkFedStatute": null, "LinkExecOrder": null, "OldLinkKappler": "http://digital.library.okstate.edu/Kappler/Vol2/treaties/mia0425.htm", "Shape__Area": 38586134.828125, "Shape__Length": 25613.830648303818 }, "geometry": { "type": "MultiPolygon", "coordinates": [ [ [ [ -86.043926798834804, 40.907641702746503 ], [ -86.043243858233296, 40.851437706467799 ], [ -86.087972940845205, 40.858938567812899 ], [ -86.088350302434804, 40.908460248699598 ], [ -86.043926798834804, 40.907641702746503 ] ] ] ] } },
{ "type": "Feature", "properties": { "fid": 581, "OBJECTID": 581, "CessionID": 254, "Cession_Date": -4138776000000, "Nation": "Miami", "Nation_Correct": "Miami", "Cession_Reservation": "Cession", "LinkRoyce": "https://archive.org/stream/annualreportofbu218smit#page/772/mode/2up", "LinkKappler": "https://babel.hathitrust.org/cgi/pt?id=uc1.31210003349790;view=1up;seq=527", "Year": "1838", "StartDate": -5869540800000, "EndDate": -4138776000000, "CreationDate": null, "joinid": "254c", "LinkFedStatute": null, "LinkExecOrder": null, "OldLinkKappler": "http://digital.library.okstate.edu/Kappler/Vol2/treaties/mia0519.htm", "Shape__Area": 31888390.80859375, "Shape__Length": 26305.151218691812 }, "geometry": { "type": "MultiPolygon", "coordinates": [ [ [ [ -85.315308223399299, 40.796630092780703 ], [ -85.391404038603298, 40.795268120919097 ], [ -85.404566746135998, 40.8295356078563 ], [ -85.381462210877402, 40.8301359833413 ], [ -85.362096864479895, 40.816867679242499 ], [ -85.325384111206702, 40.815626622530999 ], [ -85.315308223399299, 40.796630092780703 ] ] ] ] } },
{ "type": "Feature", "properties": { "fid": 598, "OBJECTID": 598, "CessionID": 192, "Cession_Date": -4266216000000, "Nation": "Miami", "Nation_Correct": "Miami", "Cession_Reservation": "Cession", "LinkRoyce": "https://archive.org/stream/annualreportofbu218smit#page/752/mode/2up", "LinkKappler": "https://babel.hathitrust.org/cgi/pt?id=uc1.31210003349790;view=1up;seq=433", "Year": "1834", "StartDate": -5869540800000, "EndDate": -4266216000000, "CreationDate": null, "joinid": "192c", "LinkFedStatute": null, "LinkExecOrder": null, "OldLinkKappler": "http://digital.library.okstate.edu/Kappler/Vol2/treaties/mia0425.htm", "Shape__Area": 164639733.7109375, "Shape__Length": 51408.621059058867 }, "geometry": { "type": "MultiPolygon", "coordinates": [ [ [ [ -85.582587348447205, 41.3304112395357 ], [ -85.701872680291402, 41.327665465126699 ], [ -85.702558228702102, 41.410088370593797 ], [ -85.579845156600797, 41.412837572693498 ], [ -85.582587348447205, 41.3304112395357 ] ] ] ] } },
{ "type": "Feature", "properties": { "fid": 620, "OBJECTID": 620, "CessionID": 196, "Cession_Date": -4266216000000, "Nation": "Miami", "Nation_Correct": "Miami", "Cession_Reservation": "Cession", "LinkRoyce": "https://archive.org/stream/annualreportofbu218smit#page/752/mode/2up", "LinkKappler": "https://babel.hathitrust.org/cgi/pt?id=uc1.31210003349790;view=1up;seq=433", "Year": "1834", "StartDate": -5869540800000, "EndDate": -4266216000000, "CreationDate": null, "joinid": "196c", "LinkFedStatute": null, "LinkExecOrder": null, "OldLinkKappler": "http://digital.library.okstate.edu/Kappler/Vol2/treaties/mia0425.htm", "Shape__Area": 31475368.6015625, "Shape__Length": 22483.499853936351 }, "geometry": { "type": "MultiPolygon", "coordinates": [ [ [ [ -85.018004385013498, 40.399388891372197 ], [ -85.065170079561497, 40.399388891372197 ], [ -85.065170079561497, 40.438396417911399 ], [ -85.015810631715993, 40.440564156259498 ], [ -85.018004385013498, 40.399388891372197 ] ] ] ] } },
{ "type": "Feature", "properties": { "fid": 636, "OBJECTID": 636, "CessionID": 329, "Cession_Date": -3647160000000, "Nation": "Miami", "Nation_Correct": "Miami", "Cession_Reservation": "Cession", "LinkRoyce": "https://archive.org/stream/annualreportofbu218smit#page/794/mode/2up", "LinkKappler": "https://babel.hathitrust.org/cgi/pt?id=uc1.31210003349790;view=1up;seq=649", "Year": "1854", "StartDate": -5869540800000, "EndDate": -3647160000000, "CreationDate": null, "joinid": "329c", "LinkFedStatute": null, "LinkExecOrder": null, "OldLinkKappler": "http://digital.library.okstate.edu/Kappler/Vol2/treaties/mia0641.htm", "Shape__Area": 1901660473.0742188, "Shape__Length": 330277.78041853709 }, "geometry": { "type": "MultiPolygon", "coordinates": [ [ [ [ -94.957917855825599, 38.0495893831405 ], [ -94.955319899951505, 38.096770006504798 ], [ -94.933382479266299, 38.0941480697701 ], [ -94.930640231499694, 38.504297624427601 ], [ -94.612409936673899, 38.504297624427601 ], [ -94.612738944646793, 38.482126948519799 ], [ -94.614065644031996, 38.0495893831405 ], [ -94.957917855825599, 38.0495893831405 ] ], [ [ -94.640733396496898, 38.313872889203402 ], [ -94.626748311864404, 38.336754609219398 ], [ -94.664590545016694, 38.335176354873099 ], [ -94.646492018553403, 38.368327332672997 ], [ -94.658009262666397, 38.407812289037501 ], [ -94.668703846485599, 38.417291923805102 ], [ -94.715595342869605, 38.4196619405893 ], [ -94.715595342869605, 38.428352949603301 ], [ -94.758373537784706, 38.426772624012401 ], [ -94.758373537784706, 38.442576632325803 ], [ -94.7740039430048, 38.442576632325803 ], [ -94.7723586224173, 38.457593616201997 ], [ -94.798683751818402, 38.468660776461498 ], [ -94.800329072406001, 38.482101567271997 ], [ -94.867786935772799, 38.482101567271997 ], [ -94.849688409309493, 38.442576632325803 ], [ -94.825008740857697, 38.442576632325803 ], [ -94.839816626145904, 38.408602223611602 ], [ -94.849688409309493, 38.408602223611602 ], [ -94.848865749015701, 38.430723373148197 ], [ -94.914678432156805, 38.427562791130597 ], [ -94.912210451275399, 38.408602223611602 ], [ -94.857915012247403, 38.399913678419402 ], [ -94.856269691659804, 38.370695873677001 ], [ -94.789634488586799, 38.363590568389199 ], [ -94.824186080564004, 38.3399113450523 ], [ -94.815136817332302, 38.314661757049798 ], [ -94.640733396496898, 38.313872889203402 ] ] ] ] } },
{ "type": "Feature", "properties": { "fid": 652, "OBJECTID": 652, "CessionID": 253, "Cession_Date": -4138776000000, "Nation": "Miami", "Nation_Correct": "Miami", "Cession_Reservation": "Cession", "LinkRoyce": "https://archive.org/stream/annualreportofbu218smit#page/772/mode/2up", "LinkKappler": "https://babel.hathitrust.org/cgi/pt?id=uc1.31210003349790;view=1up;seq=527", "Year": "1838", "StartDate": -5869540800000, "EndDate": -4138776000000, "CreationDate": null, "joinid": "253c", "LinkFedStatute": null, "LinkExecOrder": null, "OldLinkKappler": "http://digital.library.okstate.edu/Kappler/Vol2/treaties/mia0519.htm", "Shape__Area": 316968915.88671875, "Shape__Length": 71240.558288434404 }, "geometry": { "type": "MultiPolygon", "coordinates": [ [ [ [ -85.157632208400301, 40.909769942697103 ], [ -85.269376514912693, 40.821831547472399 ], [ -85.385234107398006, 40.909087807788197 ], [ -85.278288636167701, 40.991676612510602 ], [ -85.157632208400301, 40.909769942697103 ] ] ] ] } },
{ "type": "Feature", "properties": { "fid": 672, "OBJECTID": 672, "CessionID": 252, "Cession_Date": -4138776000000, "Nation": "Miami", "Nation_Correct": "Miami", "Cession_Reservation": "Cession", "LinkRoyce": "https://archive.org/stream/annualreportofbu218smit#page/772/mode/2up", "LinkKappler": "https://babel.hathitrust.org/cgi/pt?id=uc1.31210003349790;view=1up;seq=527", "Year": "1838", "StartDate": -5869540800000, "EndDate": -4138776000000, "CreationDate": null, "joinid": "252c", "LinkFedStatute": null, "LinkExecOrder": null, "OldLinkKappler": "http://digital.library.okstate.edu/Kappler/Vol2/treaties/mia0519.htm", "Shape__Area": 180987647.640625, "Shape__Length": 55519.626383316208 }, "geometry": { "type": "MultiPolygon", "coordinates": [ [ [ [ -85.556116630884603, 40.782424938929601 ], [ -85.665804293063005, 40.738864622693796 ], [ -85.668123445784204, 40.837115988269503 ], [ -85.589780074485503, 40.879303778648399 ], [ -85.565903975331096, 40.876548816429803 ], [ -85.556116630884603, 40.782424938929601 ] ] ] ] } },
{ "type": "Feature", "properties": { "fid": 673, "OBJECTID": 573, "CessionID": 142, "Cession_Date": -4477550400000, "Nation": "Eel River or Thorntown party of Miami Indians", "Nation_Correct": "Eel River or Thorntown party of Miami Indians", "Cession_Reservation": "Cession", "LinkRoyce": "https://archive.org/stream/annualreportofbu218smit#page/720/mode/2up", "LinkKappler": "https://babel.hathitrust.org/cgi/pt?id=uc1.31210003349790;view=1up;seq=291", "Year": "1828", "StartDate": -5869540800000, "EndDate": -4477550400000, "CreationDate": null, "joinid": "142c", "LinkFedStatute": null, "LinkExecOrder": null, "OldLinkKappler": "http://digital.library.okstate.edu/Kappler/Vol2/treaties/pot0283.htm", "Shape__Area": 390836665.01953125, "Shape__Length": 79159.841350640883 }, "geometry": { "type": "MultiPolygon", "coordinates": [ [ [ [ -86.514786796724493, 40.0488963218802 ], [ -86.683705796137801, 40.047818599676397 ], [ -86.682608919938303, 40.190223369008699 ], [ -86.511496167227506, 40.190223369008699 ], [ -86.514786796724493, 40.0488963218802 ] ] ] ] } }
]
}
