{
"type": "FeatureCollection",
"name": "wayne",
"crs": { "type": "name", "properties": { "name": "urn:ogc:def:crs:OGC:1.3:CRS84" } },
"features": [
{ "type": "Feature", "properties": { "fid": 347, "OBJECTID": 347, "CessionID": 71, "Cession_Date": -5057121600000, "Nation": "Delaware, Potawatomi, Miami, and Eel River Miami", "Nation_Correct": "Delaware, Potawatomi, Miami, and Eel River Miami", "Cession_Reservation": "Cession", "LinkRoyce": "https://archive.org/stream/annualreportofbu218smit#page/676/mode/2up", "LinkKappler": "https://babel.hathitrust.org/cgi/pt?id=uc1.31210003349790;view=1up;seq=109", "Year": "1809", "StartDate": -5869540800000, "EndDate": -5057121600000, "CreationDate": null, "joinid": "71c", "LinkFedStatute": null, "LinkExecOrder": null, "OldLinkKappler": "http://digital.library.okstate.edu/Kappler/Vol2/treaties/del0101.htm", "Shape__Area": 13494689122.328125, "Shape__Length": 575406.92395479803 }, "geometry": { "type": "MultiPolygon", "coordinates": [ [ [ [ -87.378653913028401, 39.738435416061002 ], [ -85.999195559368005, 38.919024021215002 ], [ -86.035951018549895, 38.898520271593597 ], [ -86.039835283532796, 38.907311270478203 ], [ -86.053478812524602, 38.9038354043008 ], [ -86.106332268447503, 38.854795282431098 ], [ -86.127434862281405, 38.8531208836622 ], [ -86.1253383102909, 38.839308748981502 ], [ -86.165706787257307, 38.802356829298702 ], [ -86.160687058941804, 38.775989032360499 ], [ -86.203462067757201, 38.782563628499197 ], [ -86.197511980353099, 38.773879102087697 ], [ -86.2220597534387, 38.777861887453703 ], [ -86.254955631545002, 38.762890106989403 ], [ -86.256707430790698, 38.772042237871702 ], [ -86.282130757647806, 38.761402443490802 ], [ -86.291596155777896, 38.7351079142909 ], [ -86.315489415449207, 38.7318755168764 ], [ -86.322019299792203, 38.749757201255498 ], [ -86.464467581642893, 38.674154745630503 ], [ -87.371790211132605, 38.910129910411101 ], [ -87.348481583132994, 38.955215520108503 ], [ -87.451999314106104, 38.982413130364897 ], [ -87.478050133952095, 38.924050398136501 ], [ -87.517045999537402, 38.931466999715099 ], [ -87.512187000487501, 38.954416999946403 ], [ -87.5294959998933, 38.971924999944001 ], [ -87.578319000800604, 38.988786000209601 ], [ -87.560427000165205, 38.992424999286797 ], [ -87.579117000318604, 39.001607000309797 ], [ -87.572587999019603, 39.057285999473997 ], [ -87.620257999683304, 39.086572000293799 ], [ -87.615684000140405, 39.103316000367002 ], [ -87.652796000658597, 39.106838999473197 ], [ -87.635018999650995, 39.122123999559903 ], [ -87.658694000149296, 39.137310999882203 ], [ -87.642174999865503, 39.157096999734001 ], [ -87.628324999393797, 39.154210999794699 ], [ -87.640433999267898, 39.166727000075703 ], [ -87.619617999450696, 39.170975000073298 ], [ -87.6203999999735, 39.185195000308703 ], [ -87.588614000282107, 39.197824000239301 ], [ -87.574557999946094, 39.218403999342698 ], [ -87.571586000185405, 39.252286999818899 ], [ -87.5923939996066, 39.247145999835297 ], [ -87.604946999894693, 39.260211999798003 ], [ -87.609767000383201, 39.284714000016102 ], [ -87.5979460003892, 39.299479000257101 ], [ -87.620589000119395, 39.307046000369098 ], [ -87.578331000496206, 39.340343000124697 ], [ -87.528728344567298, 39.348900657488201 ], [ -87.525895743575703, 39.380554451967697 ], [ -87.495594217976205, 39.386147182786097 ], [ -87.492582018606498, 39.404216978900799 ], [ -87.436660493493207, 39.427247626452797 ], [ -87.431500516602298, 39.433759811007903 ], [ -87.451868558926606, 39.437980970110097 ], [ -87.4218930346386, 39.453928232959001 ], [ -87.433770960872195, 39.4951972246905 ], [ -87.413568964941604, 39.507515354714002 ], [ -87.416781959336802, 39.563645144735801 ], [ -87.402856564161596, 39.5632238114082 ], [ -87.382410766361204, 39.606551134986098 ], [ -87.395619651791094, 39.652942523932602 ], [ -87.378653913028401, 39.738435416061002 ] ] ] ] } },
{ "type": "Feature", "properties": { "fid": 498, "OBJECTID": 498, "CessionID": 72, "Cession_Date": -5057121600000, "Nation": "Delaware, Potawatomi, Miami, and Eel River Miami", "Nation_Correct": "Delaware, Potawatomi, Miami, and Eel River Miami", "Cession_Reservation": "Cession", "LinkRoyce": "https://archive.org/stream/annualreportofbu218smit#page/676/mode/2up", "LinkKappler": "https://babel.hathitrust.org/cgi/pt?id=uc1.31210003349790;view=1up;seq=109", "Year": "1809", "StartDate": -5869540800000, "EndDate": -5057121600000, "CreationDate": null, "joinid": "72c", "LinkFedStatute": null, "LinkExecOrder": null, "OldLinkKappler": "http://digital.library.okstate.edu/Kappler/Vol2/treaties/del0101.htm", "Shape__Area": 3987311939.5820312, "Shape__Length": 369675.09495147277 }, "geometry": { "type": "MultiPolygon", "coordinates": [ [ [ [ -85.059437185928502, 39.384147994845002 ], [ -85.328171957232399, 39.274807645323698 ], [ -85.086859100799401, 40.267752539759798 ], [ -84.804139000521104, 40.411410999826302 ], [ -85.059437185928502, 39.384147994845002 ] ] ] ] } }
]
}
